IRIDIUM 63              
1 25286U 98021B   25045.50999094  .00000622  00000+0  20599-3 0  9991
2 25286  86.4017 133.5991 0002012  93.9620 266.1807 14.36377111406235
IRIDIUM 69              
1 25319U 98026A   25045.55032334  .00000996  00000+0  30558-3 0  9993
2 25319  86.4031 147.2278 0004307  82.3748 277.7941 14.40753939405406
IRIDIUM 71              
1 25320U 98026B   25045.29640018  .00000886  00000+0  26970-3 0  9991
2 25320  86.4022 142.0531 0004064 114.4026 245.7598 14.40971625405899
IRIDIUM 73              
1 25344U 98032C   25045.56622472  .00000962  00000+0  23612-3 0  9993
2 25344  86.4381  98.9151 0002832  84.8728 275.2801 14.51428137412777
IRIDIUM 82              
1 25467U 98051A   25045.61062604  .00030675  00000+0  10825-2 0  9996
2 25467  86.3759 169.6145 0099570  40.4891 320.3707 15.24408327405234
